#aV2011  9 30  0  0   .00000000      96 DD+AD WGS84 FIT  NGA
## 1655 432000.00000000   900.00000000 55834  .0000000000000
+   32     1  2  3  4  5  6  7  8  9 10 11 12 13 14 15 16 17
+         18 19 20 21 22 23 24 25 26 27 28 29 30 31 32  0  0
+          0  0  0  0  0  0  0  0  0  0  0  0  0  0  0  0  0
+          0  0  0  0  0  0  0  0  0  0  0  0  0  0  0  0  0
+          0  0  0  0  0  0  0  0  0  0  0  0  0  0  0  0  0
++         0  0  0  0  0  0  0  0  0  0  0  0  0  0  0  0  0
++         0  0  0  0  0  0  0  0  0  0  0  0  0  0  0  0  0
++         0  0  0  0  0  0  0  0  0  0  0  0  0  0  0  0  0
++         0  0  0  0  0  0  0  0  0  0  0  0  0  0  0  0  0
++         0  0  0  0  0  0  0  0  0  0  0  0  0  0  0  0  0
%c cc cc ccc ccc cccc cccc cccc cccc ccccc ccccc ccccc ccccc
%c cc cc ccc ccc cccc cccc cccc cccc ccccc ccccc ccccc ccccc
%f  0.0000000  0.000000000  0.00000000000  0.000000000000000
%f  0.0000000  0.000000000  0.00000000000  0.000000000000000
%i    0    0    0    0      0      0      0      0         0
%i    0    0    0    0      0      0      0      0         0
/*      NGA, ST. LOUIS,MO.                                  
/*   EPHEMERIS COMPUTED FROM  3 DAYS OF DATA                
/* CCCCCCCCCCCCCCCCCCCCCCCCCCCCCCCCCCCCCCCCCCCCCCCCCCCCCCCCC
/* CCCCCCCCCCCCCCCCCCCCCCCCCCCCCCCCCCCCCCCCCCCCCCCCCCCCCCCCC
*  2011  9 30 16 45   .00000000                                                 
P  1  13413.213125 -19418.503197  12173.605903     -4.737236                    
V  1  -1332.225530  15596.026634  26320.644899      -.016034                    
P  2 -15184.889486  -3767.677767 -21388.331281    358.610098                    
V  2   5976.155098 -26760.124446    -23.226490       .018187                    
P  3  23324.427577   8795.992595   9134.917739    775.142102                    
V  3   7819.368276   9917.058376 -27841.300239       .049945                    
P  4  -8818.929990 -17903.446609 -17585.864731    246.690263                    
V  4   7444.532264 -20910.042430  18123.436720       .112791                    
P  5 -25158.959499    868.312769  -8669.765763   -225.400452                    
V  5   9780.775216  -5657.496689 -28873.885450      -.051847                    
P  6  22431.862983  12922.133429   6641.815060    -59.004189                    
V  6   4144.460334   7789.284457 -29517.557328       .081239                    
P  7   5710.438000 -25763.257762   1441.014276     29.354849                    
V  7   2933.912563  -1120.863526 -32168.317679       .019361                    
P  8    458.209952 -23726.270584  11346.843210      9.251594                    
V  8   6470.731058 -13102.332763 -28318.242484      -.001394                    
P  9 -13940.890617  16617.093554  14795.521705    108.815878                    
V  9   2812.905241 -19583.208319  23747.332954       .023638                    
P 10 -12823.772799 -11755.281699 -20390.456490    -14.827083                    
V 10  24271.646509  -7343.902778 -10770.730120      -.011460                    
P 11  13794.011336 -14141.883123  17257.477194   -190.530334                    
V 11   3364.725140  22962.201988  16152.363711      -.034250                    
P 12 -21955.161886  11950.240632  -8710.906259     25.620599                    
V 12 -11312.090522    674.973773  29575.388701       .023749                    
P 13   2440.939089 -17330.188365 -20089.471502    248.960631                    
V 13  17187.894950  18396.392161 -13954.086584      -.019041                    
P 14  14382.967934  21641.416730   6046.471627    174.683789                    
V 14  -6437.138512  -4139.188699  30878.655728       .017718                    
P 15 -17320.411340   3423.077153  19903.089229   -104.274845                    
V 15 -17718.118007 -18019.468811 -12148.379582       .014297                    
P 16  25657.388376  -1279.766240  -7307.000841   -200.732886                    
V 16  -8474.546506   4084.252266 -30127.610319      -.021638                    
P 17 -14820.110177 -21371.568355   6118.754985    172.848239                    
V 17   7023.311323   3679.810176  30351.524036      -.016018                    
P 18  -4484.344426  16845.780947  20286.106677    159.867669                    
V 18 -24686.477336   5328.861667 -10421.482111       .018617                    
P 19  18576.499582    941.441180  19067.214388   -189.352453                    
V 19  14976.297928  18987.362751 -15147.114261      -.040086                    
P 20  20402.005552 -14164.062942  -9459.481224     53.682745                    
V 20  12338.038448   -550.420347  27925.290004       .005420                    
P 21  -2437.508219  25643.869797   5424.889175   -174.881985                    
V 21  -5550.642776   5280.896672 -30452.963103      -.024698                    
P 22  10545.024204  13176.912330  20710.318882    144.173404                    
V 22 -24872.020855   7593.233761   7790.370738      -.003233                    
P 23  10861.103391 -10583.873367 -21783.622879    271.751481                    
V 23  19792.115186  19390.679985     90.790107      -.031116                    
P 24  15475.045032 -16294.006253  13938.838712    428.198116                    
V 24  -2695.988455  17790.269192  24168.854017       .028879                    
P 25 -12642.663312  16063.897339 -16969.120976     21.162409                    
V 25 -21072.274594   4567.965477  20081.664630       .017906                    
P 26 -20538.366947  -9936.045763  13323.615728   -174.721767                    
V 26 -10588.732664 -14299.287277 -25461.882650      -.129551                    
P 27 -15468.042048   9753.450295  19765.589558    310.475076                    
V 27   3725.969007 -23526.326597  15390.292221       .038527                    
P 28  -6525.277491 -13897.941935  22221.276104     71.721286                    
V 28  26114.699826  -6394.580058   3512.416317       .031250                    
P 29  -2104.044357  17654.927038 -19680.045167    244.337608                    
V 29 -18205.051305 -17339.572444 -13523.253652       .032752                    
P 30    907.990715  16016.970257 -21573.245824     77.402612                    
V 30 -24771.787207   9367.728755   6014.277007      -.066709                    
P 31   9572.766455  14943.028322 -19490.569955    148.832633                    
V 31  -7526.822390  24076.766000  14819.202001       .053591                    
P 32  25289.385505  -6742.112192  -2500.540827   -337.659665                    
V 32   4129.599977   2688.936585  31671.825517      -.064231                    
EOF
